0 COSMOS 2251 DEB
1 36532U 93036BCS 13279.68464624  .00002510  00000-0  49735-3 0  2141
2 36532 074.0058 028.3496 0081121 249.4954 109.9528 14.60760524210234
0 COSMOS 2251 DEB
1 36532U 93036BCS 13280.64340676  .00002758  00000-0  54438-3 0  2150
2 36532 074.0063 026.5053 0083175 251.6523 107.7114 14.60772992210371
0 COSMOS 2251 DEB
1 36532U 93036BCS 13283.65663450  .00004114  00000-0  80367-3 0  2161
2 36532 074.0016 020.7229 0080211 245.4479 113.8800 14.60817486210816
0 COSMOS 2251 DEB
1 36532U 93036BCS 13283.65670893  .00003060  00000-0  60308-3 0  2162
2 36532 073.9884 020.7267 0083046 252.1481 107.2301 14.60798868210811
0 COSMOS 2251 DEB
1 36532U 93036BCS 13285.57421918  .00003370  00000-0  66353-3 0  2178
2 36532 073.9652 017.0386 0082547 255.6220 103.7982 14.60820826211096
0 COSMOS 2251 DEB
1 36532U 93036BCS 13289.54614540  .00005661  00000-0  11094-2 0  2181
2 36532 074.0029 009.4423 0081354 234.7817 125.2268 14.60890079211675
0 COSMOS 2251 DEB
1 36532U 93036BCS 13293.52943435  .00006828  00000-0  13369-2 0  2196
2 36532 073.9985 001.8045 0080112 225.1738 195.5991 14.60940009212254
